ONEWEB-0517             
1 54135U 22138Y   24113.51307911  .00000047  00000+0  84611-4 0  9996
2 54135  87.9100 101.3385 0001917  75.4383 284.6962 13.19724232 73207
ONEWEB-0518             
1 54136U 22138Z   24113.91111741  .00000074  00000+0  15362-3 0  9991
2 54136  87.9107 101.2689 0001888  84.2834 275.8514 13.19727514 73253
ONEWEB-0519             
1 54137U 22138AA  24113.93638496  .00000078  00000+0  16319-3 0  9992
2 54137  87.9098 101.2502 0001517  84.1990 275.9315 13.19727782 73266
ONEWEB-0520             
1 54138U 22138AB  24113.51624315  .00000022  00000+0  23487-4 0  9996
2 54138  87.9100 101.3366 0001485  98.4942 261.6359 13.19726059 73197
ONEWEB-0521             
1 54139U 22138AC  24113.92849927  .00000063  00000+0  12585-3 0  9991
2 54139  87.9098 101.2482 0002028  79.3015 280.8346 13.19725924 73194
ONEWEB-0522             
1 54140U 22138AD  24113.90796226  .00000103  00000+0  22559-3 0  9991
2 54140  87.9096 101.2537 0001930  91.6830 268.4524 13.19726911 73230
ONEWEB-0523             
1 54141U 22138AE  24113.81136324  .00000033  00000+0  48775-4 0  9990
2 54141  87.9187  70.7075 0002920  79.1990 280.9472 13.20771875 75635
ONEWEB-0524             
1 54142U 22138AF  24113.87606989 -.00000001  00000+0 -34513-4 0  9998
2 54142  87.9186  70.6985 0002827 101.0598 259.0854 13.20772411 75648
